NORAD_CAT_ID,OBJECT_NAME,OBJECT_TYPE,EPOCH,MEAN_MOTION,ECCENTRICITY,INCLINATION,RA_OF_ASC_NODE,ARG_OF_PERICENTER,MEAN_ANOMALY,BSTAR,MEAN_MOTION_DOT,MEAN_MOTION_DDOT,TLE_LINE0,TLE_LINE1,TLE_LINE2,SEMIMAJOR_AXIS,PERIOD,APOGEE,PERIGEE,DECAYED
50846.0,STARLINK-3308,PAYLOAD,2023-04-25 14:00:01,15.07190376,0.000115,53.215,208.7836,105.8332,47.0096,-0.0014665,-0.00022527,0.0,0 STARLINK-3308,1 50846U 22001AV  23115.58335648 -.00022527  00000-0 -14665-2 0  9996,2 50846  53.2150 208.7836 0001150 105.8332  47.0096 15.07190376  1303,6922.927,95.542,545.588,543.996,0.0
50846.0,STARLINK-3308,PAYLOAD,2023-04-26 14:00:01,15.07188068,0.0001215,53.2146,204.3063,110.9961,70.5248,0.0013552,0.00020396,0.0,0 STARLINK-3308,1 50846U 22001AV  23116.58334491  .00020396  00000-0  13552-2 0  9996,2 50846  53.2146 204.3063 0001215 110.9961  70.5248 15.07188068  1304,6922.934,95.542,545.64,543.958,0.0
50846.0,STARLINK-3308,PAYLOAD,2023-04-27 00:00:00,15.07211697,0.0001193,53.2143,202.439,118.5648,165.0004,0.0012106,0.00018195,0.0,0 STARLINK-3308,1 50846U 22001AV  23117.00001157  .00018195  00000-0  12106-2 0  9992,2 50846  53.2143 202.4390 0001193 118.5648 165.0004 15.07211697  1309,6922.862,95.541,545.553,543.901,0.0
50846.0,STARLINK-3308,PAYLOAD,2023-04-27 05:06:47,15.07185258,7.54e-05,53.2148,201.4816,122.3808,237.7256,0.00068868,0.00010209,0.0,0 STARLINK-3308,1 50846U 22001AV  23117.21304984  .00010209  00000-0  68868-3 0  9994,2 50846  53.2148 201.4816 0000754 122.3808 237.7256 15.07185258 73419,6922.943,95.542,545.33,544.286,0.0
50846.0,STARLINK-3308,PAYLOAD,2023-04-27 11:28:44,15.07206479,0.0001139,53.2141,200.2977,119.3743,240.7362,0.00068688,0.00010188,0.0,0 STARLINK-3308,1 50846U 22001AV  23117.47829048  .00010188  00000-0  68688-3 0  9991,2 50846  53.2141 200.2977 0001139 119.3743 240.7362 15.07206479 72172,6922.878,95.541,545.531,543.954,0.0
50846.0,STARLINK-3308,PAYLOAD,2023-04-28 11:21:03,15.07230588,0.0001226,53.215,195.8453,112.5539,247.5582,0.0004095,5.96e-05,0.0,0 STARLINK-3308,1 50846U 22001AV  23118.47295342  .00005960  00000-0  40950-3 0  9990,2 50846  53.2150 195.8453 0001226 112.5539 247.5582 15.07230588 72329,6922.804,95.539,545.518,543.82,0.0
50846.0,STARLINK-3308,PAYLOAD,2023-04-28 22:29:28,15.07227673,0.0001442,53.2142,193.7687,57.2809,302.8321,0.00019216,2.645e-05,0.0,0 STARLINK-3308,1 50846U 22001AV  23118.93713387  .00002645  00000-0  19216-3 0  9993,2 50846  53.2142 193.7687 0001442  57.2809 302.8321 15.07227673 73677,6922.813,95.54,545.676,543.68,0.0
50846.0,STARLINK-3308,PAYLOAD,2023-04-29 12:48:52,15.07215084,0.0001386,53.2152,191.0913,100.859,259.2557,-9.9008e-05,-1.791e-05,0.0,0 STARLINK-3308,1 50846U 22001AV  23119.53394093 -.00001791  00000-0 -99008-4 0  9990,2 50846  53.2152 191.0913 0001386 100.8590 259.2557 15.07215084 72487,6922.852,95.54,545.676,543.757,0.0
50846.0,STARLINK-3308,PAYLOAD,2023-04-30 14:16:41,15.07209713,0.0001422,53.2155,186.3387,110.418,249.6964,5.8101e-07,-2.75e-06,0.0,0 STARLINK-3308,1 50846U 22001AV  23120.59492983 -.00000275  00000-0  58101-6 0  9991,2 50846  53.2155 186.3387 0001422 110.4180 249.6964 15.07209713 73922,6922.868,95.541,545.717,543.749,0.0
50846.0,STARLINK-3308,PAYLOAD,2023-05-01 04:36:05,15.07217691,9.97e-05,53.2151,183.6673,64.5504,295.5591,0.00017991,2.457e-05,0.0,0 STARLINK-3308,1 50846U 22001AV  23121.19172703  .00002457  00000-0  17991-3 0  9995,2 50846  53.2151 183.6673 0000997  64.5504 295.5591 15.07217691 74012,6922.844,95.54,545.399,544.018,0.0
50846.0,STARLINK-3308,PAYLOAD,2023-05-01 10:57:49,15.07372573,0.0001418,53.2152,182.4774,129.4701,230.6416,0.0014951,0.00022652,0.0,0 STARLINK-3308,1 50846U 22001AV  23121.45682510  .00022652  00000-0  14951-2 0  9997,2 50846  53.2152 182.4774 0001418 129.4701 230.6416 15.07372573 74052,6922.369,95.53,545.216,543.253,0.0
50846.0,STARLINK-3308,PAYLOAD,2023-05-02 12:24:29,15.08008558,0.000119,53.2152,177.7218,90.7338,269.379,0.0060524,0.00095152,0.0,0 STARLINK-3308,1 50846U 22001AV  23122.51701089  .00095152  00000-0  60524-2 0  9990,2 50846  53.2152 177.7218 0001190  90.7338 269.3790 15.08008558 74217,6920.423,95.49,543.111,541.464,0.0
50846.0,STARLINK-3308,PAYLOAD,2023-05-02 15:35:17,15.08079011,0.0001349,53.2152,177.1272,91.3815,268.7331,0.0064288,0.00101371,0.0,0 STARLINK-3308,1 50846U 22001AV  23122.64951286  .00101371  00000-0  64288-2 0  9992,2 50846  53.2152 177.1272 0001349  91.3815 268.7331 15.08079011 74232,6920.207,95.486,543.006,541.139,0.0
50846.0,STARLINK-3308,PAYLOAD,2023-05-03 06:00:02,15.08855971,0.0001396,53.215,174.4375,92.9836,289.1314,-0.0016575,-0.00026582,0.0,0 STARLINK-3308,1 50846U 22001AV  23123.25002315 -.00026582  00000-0 -16575-2 0  9998,2 50846  53.2150 174.4375 0001396  92.9836 289.1314 15.08855971 74321,6917.832,95.437,540.662,538.731,0.0
50846.0,STARLINK-3308,PAYLOAD,2023-05-03 14:00:01,15.08812351,0.0001384,53.2145,172.9424,84.3529,309.3021,0.0025026,0.00039736,0.0,0 STARLINK-3308,1 50846U 22001AV  23123.58334491  .00039736  00000-0  25026-2 0  9991,2 50846  53.2145 172.9424 0001384  84.3529 309.3021 15.08812351  1307,6917.965,95.439,540.787,538.872,0.0
50846.0,STARLINK-3308,PAYLOAD,2023-05-03 22:00:00,15.08827531,0.0001351,53.2143,171.4442,94.3138,310.9347,0.0016443,0.00025969,0.0,0 STARLINK-3308,1 50846U 22001AV  23123.91667824  .00025969  00000-0  16443-2 0  9993,2 50846  53.2143 171.4442 0001351  94.3138 310.9347 15.08827531  1305,6917.919,95.438,540.718,538.849,0.0
50846.0,STARLINK-3308,PAYLOAD,2023-05-04 06:00:00,15.08868488,0.0001371,53.2142,169.9484,94.3417,322.4858,-0.0025327,-0.00040401,0.0,0 STARLINK-3308,1 50846U 22001AV  23124.25001157 -.00040401  00000-0 -25327-2 0  9993,2 50846  53.2142 169.9484 0001371  94.3417 322.4858 15.08868488 74473,6917.793,95.436,540.607,538.71,0.0
50846.0,STARLINK-3308,PAYLOAD,2023-05-04 14:00:01,15.08818011,0.0001336,53.2137,168.4531,84.3436,344.1579,0.0021328,0.00033798,0.0,0 STARLINK-3308,1 50846U 22001AV  23124.58335648  .00033798  00000-0  21328-2 0  9990,2 50846  53.2137 168.4531 0001336  84.3436 344.1579 15.08818011  1305,6917.948,95.439,540.737,538.888,0.0
50846.0,STARLINK-3308,PAYLOAD,2023-05-04 22:00:01,15.08820981,0.0001294,53.2136,166.9549,93.9233,346.1688,0.0014149,0.0002229,0.0,0 STARLINK-3308,1 50846U 22001AV  23124.91668981  .00022290  00000-0  14149-2 0  9994,2 50846  53.2136 166.9549 0001294  93.9233 346.1688 15.08820981  1302,6917.939,95.439,540.699,538.908,0.0
50846.0,STARLINK-3308,PAYLOAD,2023-05-05 10:00:00,15.08839207,0.000129,53.2136,164.7116,83.0812,194.3275,-0.0017748,-0.00028422,0.0,0 STARLINK-3308,1 50846U 22001AV  23125.41667824 -.00028422  00000-0 -17748-2 0  9998,2 50846  53.2136 164.7116 0001290  83.0812 194.3275 15.08839207 74651,6917.883,95.438,540.64,538.855,0.0
50846.0,STARLINK-3308,PAYLOAD,2023-05-05 22:00:00,15.0881074,0.0001191,53.2137,162.4654,88.0824,26.7058,0.0022413,0.00035534,0.0,0 STARLINK-3308,1 50846U 22001AV  23125.91667824  .00035534  00000-0  22413-2 0  9998,2 50846  53.2137 162.4654 0001191  88.0824  26.7058 15.08810740  1302,6917.97,95.439,540.659,539.011,0.0
50846.0,STARLINK-3308,PAYLOAD,2023-05-05 23:05:01,15.08838714,0.0001444,53.215,162.2621,88.7484,271.3674,6.1572e-05,6.92e-06,0.0,0 STARLINK-3308,1 50846U 22001AV  23125.96181878  .00000692  00000-0  61572-4 0  9991,2 50846  53.2150 162.2621 0001444  88.7484 271.3674 15.08838714 74739,6917.884,95.438,540.748,538.75,0.0
50846.0,STARLINK-3308,PAYLOAD,2023-05-06 02:15:47,15.08841365,0.0001436,53.215,161.6673,89.1731,270.9426,1.9827e-05,2.8e-07,0.0,0 STARLINK-3308,1 50846U 22001AV  23126.09429837  .00000028  00000-0  19827-4 0  9995,2 50846  53.2150 161.6673 0001436  89.1731 270.9426 15.08841365 73476,6917.876,95.437,540.735,538.748,0.0
50846.0,STARLINK-3308,PAYLOAD,2023-05-09 06:34:18,15.08841438,0.0001132,53.2162,147.3949,88.4185,271.6937,1.5444e-05,-4.2e-07,0.0,0 STARLINK-3308,1 50846U 22001AV  23129.27381956 -.00000042  00000-0  15444-4 0  9995,2 50846  53.2162 147.3949 0001132  88.4185 271.6937 15.08841438 73953,6917.876,95.437,540.524,538.958,0.0
50846.0,STARLINK-3308,PAYLOAD,2023-05-10 08:00:28,15.08839417,0.0001071,53.216,142.6373,90.4822,269.6293,0.00020193,2.927e-05,0.0,0 STARLINK-3308,1 50846U 22001AV  23130.33366052  .00002927  00000-0  20193-3 0  9993,2 50846  53.2160 142.6373 0001071  90.4822 269.6293 15.08839417 74118,6917.882,95.438,540.488,539.006,0.0
50846.0,STARLINK-3308,PAYLOAD,2023-05-10 19:08:10,15.0883894,0.00011,53.2159,140.5555,91.1974,268.9144,0.00012435,1.692e-05,0.0,0 STARLINK-3308,1 50846U 22001AV  23130.79734363  .00001692  00000-0  12435-3 0  9995,2 50846  53.2159 140.5555 0001100  91.1974 268.9144 15.08838940 74188,6917.884,95.438,540.51,538.988,0.0
50846.0,STARLINK-3308,PAYLOAD,2023-05-10 23:54:20,15.088368,0.0001117,53.2158,139.6633,92.8214,267.2906,7.4339e-05,8.95e-06,0.0,0 STARLINK-3308,1 50846U 22001AV  23130.99606625  .00000895  00000-0  74339-4 0  9992,2 50846  53.2158 139.6633 0001117  92.8214 267.2906 15.08836800 75492,6917.89,95.438,540.528,538.982,0.0
50846.0,STARLINK-3308,PAYLOAD,2023-05-11 07:51:15,15.08838718,0.0001116,53.2159,138.1766,92.1006,268.0114,7.7179e-05,9.41e-06,0.0,0 STARLINK-3308,1 50846U 22001AV  23131.32726522  .00000941  00000-0  77179-4 0  9996,2 50846  53.2159 138.1766 0001116  92.1006 268.0114 15.08838718 74269,6917.884,95.438,540.521,538.977,0.0
50846.0,STARLINK-3308,PAYLOAD,2023-05-11 17:23:34,15.08840365,0.0001145,53.2158,136.3925,91.5741,268.5382,6.4459e-05,7.38e-06,0.0,0 STARLINK-3308,1 50846U 22001AV  23131.72470459  .00000738  00000-0  64459-4 0  9996,2 50846  53.2158 136.3925 0001145  91.5741 268.5382 15.08840365 74326,6917.879,95.438,540.536,538.952,0.0
50846.0,STARLINK-3308,PAYLOAD,2023-05-12 04:31:16,15.08840697,0.0001161,53.2158,134.3108,91.0947,269.0178,5.5413e-05,5.94e-06,0.0,0 STARLINK-3308,1 50846U 22001AV  23132.18838471  .00000594  00000-0  55413-4 0  9999,2 50846  53.2158 134.3108 0001161  91.0947 269.0178 15.08840697 74392,6917.878,95.438,540.546,538.94,0.0
